STARLINK-31535          
1 59504U 24071W   26067.17147320  .00011372  00000+0  42258-3 0  9990
2 59504  43.0082 356.0805 0001368 284.5598  75.5102 15.27545379107880
TRANSPORTER-12 OBJECT BA
1 62657U 25009BA  26068.70118713  .00011330  00000+0  42733-3 0  9991
2 62657  97.3985 151.1390 0000403 234.6623 125.4579 15.27214003 63739
